CCSDS_OMM_VERS = 2.0
CREATION_DATE  = 
ORIGINATOR     = 

OBJECT_NAME    = SEASAT 1
OBJECT_ID      = 1978-064A
CENTER_NAME    = EARTH
REF_FRAME      = TEME
TIME_SYSTEM    = UTC
MEAN_ELEMENT_THEORY = SGP/SGP4

EPOCH          = 2026-02-26T08:37:27.897888
MEAN_MOTION    = 14.46150130
ECCENTRICITY   = .0002034
INCLINATION    = 108.0138
RA_OF_ASC_NODE = 101.7233
ARG_OF_PERICENTER = 289.9788
MEAN_ANOMALY   = 70.1139

EPHEMERIS_TYPE = 0
CLASSIFICATION_TYPE = U
NORAD_CAT_ID   = 10967
ELEMENT_SET_NO = 999
REV_AT_EPOCH   = 50487
BSTAR          = .95739E-4
MEAN_MOTION_DOT = .205E-5
MEAN_MOTION_DDOT = 0

CCSDS_OMM_VERS = 2.0
CREATION_DATE  = 
ORIGINATOR     = 

OBJECT_NAME    = SL-14 R/B
OBJECT_ID      = 1979-011B
CENTER_NAME    = EARTH
REF_FRAME      = TEME
TIME_SYSTEM    = UTC
MEAN_ELEMENT_THEORY = SGP/SGP4

EPOCH          = 2026-02-26T13:56:34.824768
MEAN_MOTION    = 14.91893108
ECCENTRICITY   = .0017651
INCLINATION    = 82.5224
RA_OF_ASC_NODE = 107.1138
ARG_OF_PERICENTER = 94.4931
MEAN_ANOMALY   = 265.8306

EPHEMERIS_TYPE = 0
CLASSIFICATION_TYPE = U
NORAD_CAT_ID   = 11267
ELEMENT_SET_NO = 999
REV_AT_EPOCH   = 52712
BSTAR          = .51553E-4
MEAN_MOTION_DOT = .548E-5
MEAN_MOTION_DDOT = 0

CCSDS_OMM_VERS = 2.0
CREATION_DATE  = 
ORIGINATOR     = 

OBJECT_NAME    = SL-8 R/B
OBJECT_ID      = 1979-089B
CENTER_NAME    = EARTH
REF_FRAME      = TEME
TIME_SYSTEM    = UTC
MEAN_ELEMENT_THEORY = SGP/SGP4

EPOCH          = 2026-02-26T15:33:05.021856
MEAN_MOTION    = 14.42342706
ECCENTRICITY   = .0017059
INCLINATION    = 74.0679
RA_OF_ASC_NODE = 111.4848
ARG_OF_PERICENTER = 285.3121
MEAN_ANOMALY   = 74.6149

EPHEMERIS_TYPE = 0
CLASSIFICATION_TYPE = U
NORAD_CAT_ID   = 11574
ELEMENT_SET_NO = 999
REV_AT_EPOCH   = 43451
BSTAR          = .71518E-4
MEAN_MOTION_DOT = .21E-5
MEAN_MOTION_DDOT = 0

CCSDS_OMM_VERS = 2.0
CREATION_DATE  = 
ORIGINATOR     = 

OBJECT_NAME    = SL-14 R/B
OBJECT_ID      = 1980-005B
CENTER_NAME    = EARTH
REF_FRAME      = TEME
TIME_SYSTEM    = UTC
MEAN_ELEMENT_THEORY = SGP/SGP4

EPOCH          = 2026-02-26T04:24:56.493216
MEAN_MOTION    = 14.90914257
ECCENTRICITY   = .0015128
INCLINATION    = 82.5164
RA_OF_ASC_NODE = 318.1485
ARG_OF_PERICENTER = 196.4275
MEAN_ANOMALY   = 163.6456

EPHEMERIS_TYPE = 0
CLASSIFICATION_TYPE = U
NORAD_CAT_ID   = 11672
ELEMENT_SET_NO = 999
REV_AT_EPOCH   = 47477
BSTAR          = .54895E-4
MEAN_MOTION_DOT = .568E-5
MEAN_MOTION_DDOT = 0

CCSDS_OMM_VERS = 2.0
CREATION_DATE  = 
ORIGINATOR     = 

OBJECT_NAME    = SL-8 R/B
OBJECT_ID      = 1981-003B
CENTER_NAME    = EARTH
REF_FRAME      = TEME
TIME_SYSTEM    = UTC
MEAN_ELEMENT_THEORY = SGP/SGP4

EPOCH          = 2026-02-26T14:35:22.087392
MEAN_MOTION    = 15.10505751
ECCENTRICITY   = .026273
INCLINATION    = 82.9400
RA_OF_ASC_NODE = 300.2677
ARG_OF_PERICENTER = 217.1397
MEAN_ANOMALY   = 141.1409

EPHEMERIS_TYPE = 0
CLASSIFICATION_TYPE = U
NORAD_CAT_ID   = 12139
ELEMENT_SET_NO = 999
REV_AT_EPOCH   = 31300
BSTAR          = .44481E-3
MEAN_MOTION_DOT = .17101E-3
MEAN_MOTION_DDOT = 0

CCSDS_OMM_VERS = 2.0
CREATION_DATE  = 
ORIGINATOR     = 

OBJECT_NAME    = SL-3 R/B
OBJECT_ID      = 1981-046B
CENTER_NAME    = EARTH
REF_FRAME      = TEME
TIME_SYSTEM    = UTC
MEAN_ELEMENT_THEORY = SGP/SGP4

EPOCH          = 2026-02-26T18:02:26.217312
MEAN_MOTION    = 15.41667198
ECCENTRICITY   = .0020422
INCLINATION    = 81.2323
RA_OF_ASC_NODE = 302.8746
ARG_OF_PERICENTER = 58.9475
MEAN_ANOMALY   = 301.3769

EPHEMERIS_TYPE = 0
CLASSIFICATION_TYPE = U
NORAD_CAT_ID   = 12465
ELEMENT_SET_NO = 999
REV_AT_EPOCH   = 43674
BSTAR          = .32677E-3
MEAN_MOTION_DOT = .13913E-3
MEAN_MOTION_DDOT = 0

CCSDS_OMM_VERS = 2.0
CREATION_DATE  = 
ORIGINATOR     = 

OBJECT_NAME    = SL-3 R/B
OBJECT_ID      = 1981-103B
CENTER_NAME    = EARTH
REF_FRAME      = TEME
TIME_SYSTEM    = UTC
MEAN_ELEMENT_THEORY = SGP/SGP4

EPOCH          = 2026-02-26T17:20:06.180864
MEAN_MOTION    = 15.21221668
ECCENTRICITY   = .0012775
INCLINATION    = 81.1568
RA_OF_ASC_NODE = 226.2973
ARG_OF_PERICENTER = 325.6483
MEAN_ANOMALY   = 34.3921

EPHEMERIS_TYPE = 0
CLASSIFICATION_TYPE = U
NORAD_CAT_ID   = 12904
ELEMENT_SET_NO = 999
REV_AT_EPOCH   = 97156
BSTAR          = .24391E-3
MEAN_MOTION_DOT = .5478E-4
MEAN_MOTION_DDOT = 0

CCSDS_OMM_VERS = 2.0
CREATION_DATE  = 
ORIGINATOR     = 

OBJECT_NAME    = SL-3 R/B
OBJECT_ID      = 1982-013B
CENTER_NAME    = EARTH
REF_FRAME      = TEME
TIME_SYSTEM    = UTC
MEAN_ELEMENT_THEORY = SGP/SGP4

EPOCH          = 2026-02-26T17:38:25.949184
MEAN_MOTION    = 15.21880405
ECCENTRICITY   = .0022075
INCLINATION    = 81.1760
RA_OF_ASC_NODE = 173.6059
ARG_OF_PERICENTER = 214.5320
MEAN_ANOMALY   = 145.4479

EPHEMERIS_TYPE = 0
CLASSIFICATION_TYPE = U
NORAD_CAT_ID   = 13068
ELEMENT_SET_NO = 999
REV_AT_EPOCH   = 40268
BSTAR          = .25E-3
MEAN_MOTION_DOT = .575E-4
MEAN_MOTION_DDOT = 0

CCSDS_OMM_VERS = 2.0
CREATION_DATE  = 
ORIGINATOR     = 

OBJECT_NAME    = SL-3 R/B
OBJECT_ID      = 1982-039B
CENTER_NAME    = EARTH
REF_FRAME      = TEME
TIME_SYSTEM    = UTC
MEAN_ELEMENT_THEORY = SGP/SGP4

EPOCH          = 2026-02-26T18:57:02.184768
MEAN_MOTION    = 15.10006735
ECCENTRICITY   = .0029951
INCLINATION    = 81.1584
RA_OF_ASC_NODE = 228.5279
ARG_OF_PERICENTER = 0.0390
MEAN_ANOMALY   = 0.0832

EPHEMERIS_TYPE = 0
CLASSIFICATION_TYPE = U
NORAD_CAT_ID   = 13154
ELEMENT_SET_NO = 999
REV_AT_EPOCH   = 37999
BSTAR          = .15364E-3
MEAN_MOTION_DOT = .2545E-4
MEAN_MOTION_DDOT = 0

CCSDS_OMM_VERS = 2.0
CREATION_DATE  = 
ORIGINATOR     = 

OBJECT_NAME    = SL-3 R/B
OBJECT_ID      = 1982-079B
CENTER_NAME    = EARTH
REF_FRAME      = TEME
TIME_SYSTEM    = UTC
MEAN_ELEMENT_THEORY = SGP/SGP4

EPOCH          = 2026-02-26T16:58:14.792160
MEAN_MOTION    = 15.24604017
ECCENTRICITY   = .0024627
INCLINATION    = 81.1458
RA_OF_ASC_NODE = 206.0420
ARG_OF_PERICENTER = 201.7223
MEAN_ANOMALY   = 158.2968

EPHEMERIS_TYPE = 0
CLASSIFICATION_TYPE = U
NORAD_CAT_ID   = 13403
ELEMENT_SET_NO = 999
REV_AT_EPOCH   = 37602
BSTAR          = .28382E-3
MEAN_MOTION_DOT = .7084E-4
MEAN_MOTION_DDOT = 0

CCSDS_OMM_VERS = 2.0
CREATION_DATE  = 
ORIGINATOR     = 

OBJECT_NAME    = SL-14 R/B
OBJECT_ID      = 1982-092B
CENTER_NAME    = EARTH
REF_FRAME      = TEME
TIME_SYSTEM    = UTC
MEAN_ELEMENT_THEORY = SGP/SGP4

EPOCH          = 2026-02-26T08:04:22.660032
MEAN_MOTION    = 14.86652839
ECCENTRICITY   = .0019787
INCLINATION    = 82.5711
RA_OF_ASC_NODE = 152.0165
ARG_OF_PERICENTER = 343.1626
MEAN_ANOMALY   = 79.8407

EPHEMERIS_TYPE = 0
CLASSIFICATION_TYPE = U
NORAD_CAT_ID   = 13553
ELEMENT_SET_NO = 999
REV_AT_EPOCH   = 32724
BSTAR          = .51189E-4
MEAN_MOTION_DOT = .48E-5
MEAN_MOTION_DDOT = 0

CCSDS_OMM_VERS = 2.0
CREATION_DATE  = 
ORIGINATOR     = 

OBJECT_NAME    = SL-3 R/B
OBJECT_ID      = 1983-010B
CENTER_NAME    = EARTH
REF_FRAME      = TEME
TIME_SYSTEM    = UTC
MEAN_ELEMENT_THEORY = SGP/SGP4

EPOCH          = 2026-02-26T15:06:19.564704
MEAN_MOTION    = 15.45896651
ECCENTRICITY   = .0018637
INCLINATION    = 81.1044
RA_OF_ASC_NODE = 15.8010
ARG_OF_PERICENTER = 85.8204
MEAN_ANOMALY   = 274.5170

EPHEMERIS_TYPE = 0
CLASSIFICATION_TYPE = U
NORAD_CAT_ID   = 13819
ELEMENT_SET_NO = 999
REV_AT_EPOCH   = 35623
BSTAR          = .37771E-3
MEAN_MOTION_DOT = .18527E-3
MEAN_MOTION_DDOT = 0

CCSDS_OMM_VERS = 2.0
CREATION_DATE  = 
ORIGINATOR     = 

OBJECT_NAME    = SL-3 R/B
OBJECT_ID      = 1983-075B
CENTER_NAME    = EARTH
REF_FRAME      = TEME
TIME_SYSTEM    = UTC
MEAN_ELEMENT_THEORY = SGP/SGP4

EPOCH          = 2026-02-26T18:12:22.961376
MEAN_MOTION    = 15.38107894
ECCENTRICITY   = .0019598
INCLINATION    = 97.6140
RA_OF_ASC_NODE = 61.9252
ARG_OF_PERICENTER = 268.9328
MEAN_ANOMALY   = 90.9671

EPHEMERIS_TYPE = 0
CLASSIFICATION_TYPE = U
NORAD_CAT_ID   = 14208
ELEMENT_SET_NO = 999
REV_AT_EPOCH   = 32847
BSTAR          = .33112E-3
MEAN_MOTION_DOT = .12418E-3
MEAN_MOTION_DDOT = 0

CCSDS_OMM_VERS = 2.0
CREATION_DATE  = 
ORIGINATOR     = 

OBJECT_NAME    = COSMOS 1536
OBJECT_ID      = 1984-013A
CENTER_NAME    = EARTH
REF_FRAME      = TEME
TIME_SYSTEM    = UTC
MEAN_ELEMENT_THEORY = SGP/SGP4

EPOCH          = 2026-02-26T14:55:14.303712
MEAN_MOTION    = 15.23659162
ECCENTRICITY   = .0013208
INCLINATION    = 82.5450
RA_OF_ASC_NODE = 118.8515
ARG_OF_PERICENTER = 326.5098
MEAN_ANOMALY   = 33.5302

EPHEMERIS_TYPE = 0
CLASSIFICATION_TYPE = U
NORAD_CAT_ID   = 14699
ELEMENT_SET_NO = 999
REV_AT_EPOCH   = 27093
BSTAR          = .26342E-3
MEAN_MOTION_DOT = .6361E-4
MEAN_MOTION_DDOT = 0

CCSDS_OMM_VERS = 2.0
CREATION_DATE  = 
ORIGINATOR     = 

OBJECT_NAME    = SL-14 R/B
OBJECT_ID      = 1984-027B
CENTER_NAME    = EARTH
REF_FRAME      = TEME
TIME_SYSTEM    = UTC
MEAN_ELEMENT_THEORY = SGP/SGP4

EPOCH          = 2026-02-26T12:21:43.966080
MEAN_MOTION    = 14.85962892
ECCENTRICITY   = .0018342
INCLINATION    = 82.5381
RA_OF_ASC_NODE = 255.4963
ARG_OF_PERICENTER = 15.3737
MEAN_ANOMALY   = 344.8032

EPHEMERIS_TYPE = 0
CLASSIFICATION_TYPE = U
NORAD_CAT_ID   = 14820
ELEMENT_SET_NO = 999
REV_AT_EPOCH   = 24597
BSTAR          = .47491E-4
MEAN_MOTION_DOT = .44E-5
MEAN_MOTION_DDOT = 0

